CCSDS_OMM_VERS = 2.0
CREATION_DATE  = 
ORIGINATOR     = 

OBJECT_NAME    = STARLINK-36330
OBJECT_ID      = 2026-026S
CENTER_NAME    = EARTH
REF_FRAME      = TEME
TIME_SYSTEM    = UTC
MEAN_ELEMENT_THEORY = SGP/SGP4

EPOCH          = 2026-03-09T14:00:01.999872
MEAN_MOTION    = 15.49958368
ECCENTRICITY   = .00016755
INCLINATION    = 97.2843
RA_OF_ASC_NODE = 123.1841
ARG_OF_PERICENTER = 81.4192
MEAN_ANOMALY   = 116.6057

EPHEMERIS_TYPE = 0
CLASSIFICATION_TYPE = U
NORAD_CAT_ID   = 67737
ELEMENT_SET_NO = 999
REV_AT_EPOCH   = 529
BSTAR          = -.25265659E-1
MEAN_MOTION_DOT = -.1279104E-1
MEAN_MOTION_DDOT = 0

CCSDS_OMM_VERS = 2.0
CREATION_DATE  = 
ORIGINATOR     = 

OBJECT_NAME    = STARLINK-36327
OBJECT_ID      = 2026-026T
CENTER_NAME    = EARTH
REF_FRAME      = TEME
TIME_SYSTEM    = UTC
MEAN_ELEMENT_THEORY = SGP/SGP4

EPOCH          = 2026-03-09T14:00:01.999872
MEAN_MOTION    = 15.50404110
ECCENTRICITY   = .00019862
INCLINATION    = 97.2838
RA_OF_ASC_NODE = 123.1910
ARG_OF_PERICENTER = 78.5315
MEAN_ANOMALY   = 135.0504

EPHEMERIS_TYPE = 0
CLASSIFICATION_TYPE = U
NORAD_CAT_ID   = 67738
ELEMENT_SET_NO = 999
REV_AT_EPOCH   = 529
BSTAR          = -.36133289E-1
MEAN_MOTION_DOT = -.1819122E-1
MEAN_MOTION_DDOT = 0

CCSDS_OMM_VERS = 2.0
CREATION_DATE  = 
ORIGINATOR     = 

OBJECT_NAME    = STARLINK-36329
OBJECT_ID      = 2026-026U
CENTER_NAME    = EARTH
REF_FRAME      = TEME
TIME_SYSTEM    = UTC
MEAN_ELEMENT_THEORY = SGP/SGP4

EPOCH          = 2026-03-09T14:00:01.999872
MEAN_MOTION    = 15.51480945
ECCENTRICITY   = .00015406
INCLINATION    = 97.2934
RA_OF_ASC_NODE = 123.2207
ARG_OF_PERICENTER = 109.8021
MEAN_ANOMALY   = 178.2869

EPHEMERIS_TYPE = 0
CLASSIFICATION_TYPE = U
NORAD_CAT_ID   = 67739
ELEMENT_SET_NO = 999
REV_AT_EPOCH   = 529
BSTAR          = -.36402573E-1
MEAN_MOTION_DOT = -.189432E-1
MEAN_MOTION_DDOT = 0

CCSDS_OMM_VERS = 2.0
CREATION_DATE  = 
ORIGINATOR     = 

OBJECT_NAME    = STARLINK-36737
OBJECT_ID      = 2026-026V
CENTER_NAME    = EARTH
REF_FRAME      = TEME
TIME_SYSTEM    = UTC
MEAN_ELEMENT_THEORY = SGP/SGP4

EPOCH          = 2026-03-09T14:00:01.999872
MEAN_MOTION    = 15.50563519
ECCENTRICITY   = .00018351
INCLINATION    = 97.2840
RA_OF_ASC_NODE = 123.1964
ARG_OF_PERICENTER = 82.2789
MEAN_ANOMALY   = 144.0507

EPHEMERIS_TYPE = 0
CLASSIFICATION_TYPE = U
NORAD_CAT_ID   = 67740
ELEMENT_SET_NO = 999
REV_AT_EPOCH   = 529
BSTAR          = -.36211485E-1
MEAN_MOTION_DOT = -.183173E-1
MEAN_MOTION_DDOT = 0

CCSDS_OMM_VERS = 2.0
CREATION_DATE  = 
ORIGINATOR     = 

OBJECT_NAME    = STARLINK-36740
OBJECT_ID      = 2026-026W
CENTER_NAME    = EARTH
REF_FRAME      = TEME
TIME_SYSTEM    = UTC
MEAN_ELEMENT_THEORY = SGP/SGP4

EPOCH          = 2026-03-09T14:00:01.999872
MEAN_MOTION    = 15.49116765
ECCENTRICITY   = .00014089
INCLINATION    = 97.2850
RA_OF_ASC_NODE = 123.1582
ARG_OF_PERICENTER = 89.6239
MEAN_ANOMALY   = 51.4317

EPHEMERIS_TYPE = 0
CLASSIFICATION_TYPE = U
NORAD_CAT_ID   = 67741
ELEMENT_SET_NO = 999
REV_AT_EPOCH   = 529
BSTAR          = .23300393E-2
MEAN_MOTION_DOT = .128396E-2
MEAN_MOTION_DDOT = 0

CCSDS_OMM_VERS = 2.0
CREATION_DATE  = 
ORIGINATOR     = 

OBJECT_NAME    = STARLINK-36693
OBJECT_ID      = 2026-026X
CENTER_NAME    = EARTH
REF_FRAME      = TEME
TIME_SYSTEM    = UTC
MEAN_ELEMENT_THEORY = SGP/SGP4

EPOCH          = 2026-03-09T14:00:01.999872
MEAN_MOTION    = 15.49115199
ECCENTRICITY   = .00006862
INCLINATION    = 97.2855
RA_OF_ASC_NODE = 123.1562
ARG_OF_PERICENTER = 107.2087
MEAN_ANOMALY   = 29.5672

EPHEMERIS_TYPE = 0
CLASSIFICATION_TYPE = U
NORAD_CAT_ID   = 67742
ELEMENT_SET_NO = 999
REV_AT_EPOCH   = 543
BSTAR          = .24472931E-2
MEAN_MOTION_DOT = .134968E-2
MEAN_MOTION_DDOT = 0

CCSDS_OMM_VERS = 2.0
CREATION_DATE  = 
ORIGINATOR     = 

OBJECT_NAME    = STARLINK-36717
OBJECT_ID      = 2026-026Y
CENTER_NAME    = EARTH
REF_FRAME      = TEME
TIME_SYSTEM    = UTC
MEAN_ELEMENT_THEORY = SGP/SGP4

EPOCH          = 2026-03-09T14:00:01.999872
MEAN_MOTION    = 15.49096726
ECCENTRICITY   = .00014338
INCLINATION    = 97.2843
RA_OF_ASC_NODE = 123.1872
ARG_OF_PERICENTER = 93.2342
MEAN_ANOMALY   = 116.1223

EPHEMERIS_TYPE = 0
CLASSIFICATION_TYPE = U
NORAD_CAT_ID   = 67743
ELEMENT_SET_NO = 999
REV_AT_EPOCH   = 543
BSTAR          = .25213467E-2
MEAN_MOTION_DOT = .139037E-2
MEAN_MOTION_DDOT = 0

CCSDS_OMM_VERS = 2.0
CREATION_DATE  = 
ORIGINATOR     = 

OBJECT_NAME    = STARLINK-36692
OBJECT_ID      = 2026-026Z
CENTER_NAME    = EARTH
REF_FRAME      = TEME
TIME_SYSTEM    = UTC
MEAN_ELEMENT_THEORY = SGP/SGP4

EPOCH          = 2026-03-09T14:00:01.999872
MEAN_MOTION    = 15.49113582
ECCENTRICITY   = .00009737
INCLINATION    = 97.2848
RA_OF_ASC_NODE = 123.1692
ARG_OF_PERICENTER = 96.5897
MEAN_ANOMALY   = 71.8280

EPHEMERIS_TYPE = 0
CLASSIFICATION_TYPE = U
NORAD_CAT_ID   = 67744
ELEMENT_SET_NO = 999
REV_AT_EPOCH   = 529
BSTAR          = .22596951E-2
MEAN_MOTION_DOT = .12444E-2
MEAN_MOTION_DDOT = 0

CCSDS_OMM_VERS = 2.0
CREATION_DATE  = 
ORIGINATOR     = 

OBJECT_NAME    = 2026-027A
OBJECT_ID      = 2026-027A
CENTER_NAME    = EARTH
REF_FRAME      = TEME
TIME_SYSTEM    = UTC
MEAN_ELEMENT_THEORY = SGP/SGP4

EPOCH          = 2026-03-09T15:18:02.160000
MEAN_MOTION    = 15.17709244
ECCENTRICITY   = .0010175
INCLINATION    = 97.4902
RA_OF_ASC_NODE = 197.6509
ARG_OF_PERICENTER = 194.8585
MEAN_ANOMALY   = 165.2351

EPHEMERIS_TYPE = 0
CLASSIFICATION_TYPE = U
NORAD_CAT_ID   = 67746
ELEMENT_SET_NO = 999
REV_AT_EPOCH   = 385
BSTAR          = .53508612E-3
MEAN_MOTION_DOT = .10743E-3
MEAN_MOTION_DDOT = 0

CCSDS_OMM_VERS = 2.0
CREATION_DATE  = 
ORIGINATOR     = 

OBJECT_NAME    = 2026-027B
OBJECT_ID      = 2026-027B
CENTER_NAME    = EARTH
REF_FRAME      = TEME
TIME_SYSTEM    = UTC
MEAN_ELEMENT_THEORY = SGP/SGP4

EPOCH          = 2026-03-09T15:15:36.550944
MEAN_MOTION    = 15.17809450
ECCENTRICITY   = .00102926
INCLINATION    = 97.4897
RA_OF_ASC_NODE = 197.6513
ARG_OF_PERICENTER = 197.2212
MEAN_ANOMALY   = 162.8674

EPHEMERIS_TYPE = 0
CLASSIFICATION_TYPE = U
NORAD_CAT_ID   = 67747
ELEMENT_SET_NO = 999
REV_AT_EPOCH   = 385
BSTAR          = .52983061E-3
MEAN_MOTION_DOT = .10668E-3
MEAN_MOTION_DDOT = 0

CCSDS_OMM_VERS = 2.0
CREATION_DATE  = 
ORIGINATOR     = 

OBJECT_NAME    = 2026-027C
OBJECT_ID      = 2026-027C
CENTER_NAME    = EARTH
REF_FRAME      = TEME
TIME_SYSTEM    = UTC
MEAN_ELEMENT_THEORY = SGP/SGP4

EPOCH          = 2026-03-09T15:13:33.718656
MEAN_MOTION    = 15.17814358
ECCENTRICITY   = .00106548
INCLINATION    = 97.4910
RA_OF_ASC_NODE = 197.6571
ARG_OF_PERICENTER = 199.4089
MEAN_ANOMALY   = 160.6740

EPHEMERIS_TYPE = 0
CLASSIFICATION_TYPE = U
NORAD_CAT_ID   = 67748
ELEMENT_SET_NO = 999
REV_AT_EPOCH   = 385
BSTAR          = .38488976E-3
MEAN_MOTION_DOT = .7729E-4
MEAN_MOTION_DDOT = 0

CCSDS_OMM_VERS = 2.0
CREATION_DATE  = 
ORIGINATOR     = 

OBJECT_NAME    = 2026-027D
OBJECT_ID      = 2026-027D
CENTER_NAME    = EARTH
REF_FRAME      = TEME
TIME_SYSTEM    = UTC
MEAN_ELEMENT_THEORY = SGP/SGP4

EPOCH          = 2026-03-09T15:07:58.917792
MEAN_MOTION    = 15.18171087
ECCENTRICITY   = .00102601
INCLINATION    = 97.4905
RA_OF_ASC_NODE = 197.6608
ARG_OF_PERICENTER = 204.7922
MEAN_ANOMALY   = 155.2820

EPHEMERIS_TYPE = 0
CLASSIFICATION_TYPE = U
NORAD_CAT_ID   = 67749
ELEMENT_SET_NO = 999
REV_AT_EPOCH   = 380
BSTAR          = .57963142E-3
MEAN_MOTION_DOT = .118E-3
MEAN_MOTION_DDOT = 0

