STARLINK-36330          
1 67737U 26026S   26068.58335648 -.01279104  00000+0 -25266-1 0  9997
2 67737  97.2843 123.1841 0001675  81.4192 116.6057 15.49958368  5299
STARLINK-36327          
1 67738U 26026T   26068.58335648 -.01819122  00000+0 -36133-1 0  9993
2 67738  97.2838 123.1910 0001986  78.5315 135.0504 15.50404110  5295
STARLINK-36329          
1 67739U 26026U   26068.58335648 -.01894320  00000+0 -36403-1 0  9997
2 67739  97.2934 123.2207 0001540 109.8021 178.2869 15.51480945  5295
STARLINK-36737          
1 67740U 26026V   26068.58335648 -.01831730  00000+0 -36211-1 0  9992
2 67740  97.2840 123.1964 0001835  82.2789 144.0507 15.50563519  5292
STARLINK-36740          
1 67741U 26026W   26068.58335648  .00128396  00000+0  23300-2 0  9993
2 67741  97.2850 123.1582 0001408  89.6239  51.4317 15.49116765  5292
STARLINK-36693          
1 67742U 26026X   26068.58335648  .00134968  00000+0  24473-2 0  9998
2 67742  97.2855 123.1562 0000686 107.2087  29.5672 15.49115199  5437
STARLINK-36717          
1 67743U 26026Y   26068.58335648  .00139037  00000+0  25213-2 0  9994
2 67743  97.2843 123.1872 0001433  93.2342 116.1223 15.49096726  5437
STARLINK-36692          
1 67744U 26026Z   26068.58335648  .00124440  00000+0  22597-2 0  9999
2 67744  97.2848 123.1692 0000973  96.5897  71.8280 15.49113582  5296
2026-027A               
1 67746U 26027A   26068.63752500  .00010743  00000+0  53509-3 0  9996
2 67746  97.4902 197.6509 0010175 194.8585 165.2351 15.17709244  3853
2026-027B               
1 67747U 26027B   26068.63583971  .00010668  00000+0  52983-3 0  9992
2 67747  97.4897 197.6513 0010292 197.2212 162.8674 15.17809450  3857
2026-027C               
1 67748U 26027C   26068.63441804  .00007729  00000+0  38489-3 0  9990
2 67748  97.4910 197.6571 0010654 199.4089 160.6740 15.17814358  3859
2026-027D               
1 67749U 26027D   26068.63054303  .00011800  00000+0  57963-3 0  9998
2 67749  97.4905 197.6608 0010260 204.7922 155.2820 15.18171087  3804
